
        """1 25544U 98067A   08264.51782528 -.00002182  00000-0 -11606-4 0  2927
2 25544  51.6416 247.4627 0006703 130.5360 325.0288 15.72125391563537""":
            ([-3199119.3019953547, -5925838.8951945184, -104283.88301037039, 4160.9001260610321, -2340.8666910921365, 6034.2397874890266])